CCSDS_OMM_VERS = 2.0
CREATION_DATE  = 
ORIGINATOR     = 

OBJECT_NAME    = SZ-21 MODULE
OBJECT_ID      = 2025-246C
CENTER_NAME    = EARTH
REF_FRAME      = TEME
TIME_SYSTEM    = UTC
MEAN_ELEMENT_THEORY = SGP/SGP4

EPOCH          = 2025-11-21T22:45:30.059712
MEAN_MOTION    = 15.61102603
ECCENTRICITY   = .0004546
INCLINATION    = 41.4747
RA_OF_ASC_NODE = 142.7430
ARG_OF_PERICENTER = 115.8358
MEAN_ANOMALY   = 244.2950

EPHEMERIS_TYPE = 0
CLASSIFICATION_TYPE = U
NORAD_CAT_ID   = 66515
ELEMENT_SET_NO = 999
REV_AT_EPOCH   = 119
BSTAR          = .30214E-3
MEAN_MOTION_DOT = .25972E-3
MEAN_MOTION_DDOT = 0

